[{"OBJECT_NAME":"SHIYAN-1 (SY-1)","OBJECT_ID":"2004-012A","EPOCH":"2026-03-09T17:40:34.066560","MEAN_MOTION":15.31043463,"ECCENTRICITY":0.00058726,"INCLINATION":97.8764,"RA_OF_ASC_NODE":140.5238,"ARG_OF_PERICENTER":23.6952,"MEAN_ANOMALY":336.4557,"EPHEMERIS_TYPE":0,"CLASSIFICATION_TYPE":"U","NORAD_CAT_ID":28220,"ELEMENT_SET_NO":999,"REV_AT_EPOCH":19586,"BSTAR":0.00054854449,"MEAN_MOTION_DOT":0.00016393,"MEAN_MOTION_DDOT":0},{"OBJECT_NAME":"STARLINK-34625","OBJECT_ID":"2025-240J","EPOCH":"2026-03-09T06:36:09.397728","MEAN_MOTION":15.30195583,"ECCENTRICITY":0.00011491,"INCLINATION":53.159,"RA_OF_ASC_NODE":64.8322,"ARG_OF_PERICENTER":73.3592,"MEAN_ANOMALY":286.7535,"EPHEMERIS_TYPE":0,"CLASSIFICATION_TYPE":"U","NORAD_CAT_ID":66154,"ELEMENT_SET_NO":999,"REV_AT_EPOCH":2197,"BSTAR":0.00096644027,"MEAN_MOTION_DOT":0.00028369,"MEAN_MOTION_DDOT":0}]
