SHIYAN-1 (SY-1)         
1 28220U 04012A   26068.73650539  .00016393  00000+0  54854-3 0  9991
2 28220  97.8764 140.5238 0005873  23.6952 336.4557 15.31043463195862
STARLINK-34625          
1 66154U 25240J   26068.27510877  .00028369  00000+0  96644-3 0  9993
2 66154  53.1590  64.8322 0001149  73.3592 286.7535 15.30195583 21971
